FLOCK 1C-3              
1 40041U 14033AH  17345.33914044  .00000837  00000-0  95002-4 0  9996
2 40041  97.9214 257.8779 0014214  70.8163 289.4599 14.88949720188842
POLYITAN-1              
1 40042U 14033AJ  17345.42873404  .00000430  00000-0  52541-4 0  9991
2 40042  97.9157 256.2221 0016119  72.1739 288.1235 14.88248548188780
TIGRISAT                
1 40043U 14033AK  17345.21440332  .00000147  00000-0  29153-4 0  9997
2 40043  97.8327 224.0844 0061517  84.5044 276.3177 14.74068648186914
LEMUR-1                 
1 40044U 14033AL  17344.67348462  .00000184  00000-0  34820-4 0  9996
2 40044  97.8324 223.2538 0060684  87.4376 273.3777 14.73895530186827
AEROCUBE 6A             
1 40045U 14033AM  17344.73006363  .00000434  00000-0  70129-4 0  9995
2 40045  97.8469 225.2779 0059442  80.8501 279.9427 14.75004013186749
AEROCUBE 6B             
1 40046U 14033AN  17344.73010078  .00000350  00000-0  58014-4 0  9990
2 40046  97.8451 225.1891 0058670  80.4708 280.3125 14.74996110186885
UKUBE-1                 
1 40074U 14037F   17345.53922404  .00000392  00000-0  54596-4 0  9996
2 40074  98.3649 108.6400 0004411 183.2833 176.8363 14.83673444185476
BRITE-PL 2              
1 40119U 14049B   17344.91863880  .00000102  00000-0  18673-4 0  9997
2 40119  97.9291  69.8248 0016486 229.5627 130.4149 14.84226108179284
FIREBIRD 4              
1 40378U 15003C   17345.50159236  .00001997  00000-0  86062-4 0  9994
2 40378  99.1086 204.9441 0134212 133.9746 227.2644 15.16456585157878
GRIFEX                  
1 40379U 15003D   17345.52071725  .00001517  00000-0  70685-4 0  9995
2 40379  99.1121 201.9844 0140560 143.7984 217.2857 15.13761599157707
EXOCUBE                 
1 40380U 15003E   17345.15969876  .00001015  00000-0  50781-4 0  9997
2 40380  99.1171 199.9011 0144598 150.4021 210.5489 15.12087851157537
DEORBITSAIL             
1 40719U 15032E   17344.90434322  .00000412  00000-0  66780-4 0  9996
2 40719  97.9624 236.2710 0015450 297.5506  62.4134 14.76268640130390
TIANWANG 1C (TW-1C)     
1 40926U 15051B   17345.15980789  .00007472  00000-0  15438-3 0  9994
2 40926  97.2084  23.5088 0008898 239.7093 157.6978 15.46080097124230
TIANWANG 1B (TW-1B)     
1 40927U 15051C   17345.50189258  .00006876  00000-0  14794-3 0  9997
2 40927  97.2174  23.7828 0008674 254.2951 215.5710 15.44921637124210
TIANWANG 1A (TW-1A)     
1 40928U 15051D   17345.45872463  .00002591  00000-0  72355-4 0  9997
2 40928  97.2082  18.0550 0010420 281.9692 185.3544 15.37571386123929
LEMUR-2-JOEL            
1 40932U 15052C   17343.52093176  .00001182  00000-0  73161-4 0  9996
2 40932   6.0064  55.7541 0013811 227.3185 132.6323 14.77597116118980
LEMUR-2-CHRIS           
1 40933U 15052D   17344.65346161  .00000397  00000-0 -34194-4 0  9998
2 40933   6.0062  46.2964 0016210 241.7428 118.0660 14.77744392119162
LEMUR-2-JEROEN          
1 40934U 15052E   17342.67677027  .00000914  00000-0  37764-4 0  9997
2 40934   6.0040  66.9186 0011297 198.6971 161.3589 14.77096240118787
LEMUR-2-PETER           
1 40935U 15052F   17342.65643757  .00002152  00000-0  20968-3 0  9992
2 40935   5.9998  68.8715 0011797 191.1968 168.7897 14.76872055118773
EXACTVIEW 9             
1 40936U 15052G   17344.60882219  .00000830  00000-0  27353-4 0  9995
2 40936   6.0011  58.2523 0009927 209.1802 150.7894 14.76330529119056
ATHENOXAT 1             
1 41168U 15077C   17345.65694444  .00002407  00000-0  96801-4 0  9993
2 41168  14.9858 312.3358 0011765 316.9086  37.5855 15.12282434109932
GALASSIA                
1 41170U 15077E   17345.19351904  .00001806  00000-0  62150-4 0  9998
2 41170  14.9895 311.1441 0013296 330.1388  29.8174 15.12704377109911
VELOX 2                 
1 41171U 15077F   17345.30582172  .00001671  00000-0  59677-4 0  9995
2 41171  14.9923 326.9031 0009059 280.2489  79.6810 15.10332009109784
AGGIESAT 4              
1 41313U 98067HP  17344.91977445  .00060496  12488-4  20484-3 0  9990
2 41313  51.6337 167.0089 0003234 165.1941 194.9160 15.90301214106877
HORYU-IV                
1 41340U 16012D   17344.64790334  .00000555  00000-0  35937-4 0  9993
2 41340  31.0061  66.5311 0014212  23.2196 336.9079 15.00828507 99540
OUFTI-1                 
1 41458U 16025C   17345.40048735  .00001633  00000-0  89202-4 0  9995
2 41458  98.1646  33.0267 0173075  57.4130 304.3670 15.04039137 89207
E-ST@R-II               
1 41459U 16025D   17345.64295971  .00000318  00000-0  21184-4 0  9992
2 41459  98.1635  33.1893 0174126  57.0308 304.7482 15.03811491 89231
AAUSAT 4                
1 41460U 16025E   17345.38644261  .00002054  00000-0  11082-3 0  9999
2 41460  98.1577  33.1620 0165639  55.3742 306.2961 15.05015285 89236
DIWATA-1                
1 41463U 98067HT  17345.45884081  .00007972  00000-0  80780-4 0  9998
2 41463  51.6400 208.3949 0002378 116.2880 305.7648 15.66303139 92547
FLOCK 2E'-1             
1 41479U 98067HZ  17344.83875625  .00031956  00000-0  15793-3 0  9990
2 41479  51.6319 189.0648 0002965 162.6981 197.4123 15.81763546 89687
FLOCK 2E'-3             
1 41480U 98067JA  17344.85766152  .00029902  00000-0  15675-3 0  9995
2 41480  51.6260 189.1778 0002731 162.1540 197.9558 15.80517645 89678
FLOCK 2E'-2             
1 41481U 98067JB  17334.77617065  .16809613  12434-4  52553-3 0  9990
2 41481  51.6166 233.3710 0007521 225.1371 134.8092 16.44458340 88170
FLOCK 2E-1              
1 41483U 98067JD  17344.76808736  .00018724  00000-0  11622-3 0  9991
2 41483  51.6345 193.2193 0002070 147.3283 212.7846 15.77066645 89476
FLOCK 2E-2              
1 41484U 98067JE  17345.55190626  .00128265  00000-0  46628-3 0  9998
2 41484  51.6284 183.3959 0003072 213.2056 146.8756 15.87603129 89677
FLOCK 2E-3              
1 41486U 98067JG  17345.01312040  .00022538  00000-0  12767-3 0  9990
2 41486  51.6302 192.5591 0002090 150.7260 209.3859 15.78984969 89522
FLOCK 2E-4              
1 41487U 98067JH  17345.05807985  .00064024  00000-0  36215-3 0  9992
2 41487  51.6299 191.3513 0001374 147.7760 212.3325 15.78483928 89547
FLOCK 2E-6              
1 41563U 98067JM  17344.86206221  .00087048  00000-0  39147-3 0  9999
2 41563  51.6307 195.2858 0005300 191.1082 168.9805 15.83334114 87545
FLOCK 2E-5              
1 41564U 98067JN  17344.86462361  .00015680  00000-0  11153-3 0  9999
2 41564  51.6322 197.5960 0003220 149.4153 210.7034 15.74072768 87506
FLOCK 2E-7              
1 41565U 98067JP  17344.84982471  .00030652  00000-0  15268-3 0  9994
2 41565  51.6267 187.5945 0004110 126.8292 233.3088 15.81612499 87531
FLOCK 2E'-5             
1 41567U 98067JR  17344.84601319  .00013830  00000-0  10457-3 0  9999
2 41567  51.6335 200.5192 0004874 107.8008 252.3522 15.72750843 87338
FLOCK 2E'-6             
1 41568U 98067JS  17344.79156582  .00022979  00000-0  14270-3 0  9992
2 41568  51.6279 194.7936 0004269 126.7075 233.4317 15.76893752 87432
FLOCK 2E'-8             
1 41569U 98067JT  17345.02169977  .00038217  00000-0  18156-3 0  9991
2 41569  51.6301 185.7639 0002426 142.9530 217.1641 15.82522966 87452
FLOCK 2E-9              
1 41571U 98067JV  17344.94147447  .00322433  54033-4  66933-3 0  9993
2 41571  51.6241 182.1804 0005465 243.7857 116.2591 15.98576985 87473
FLOCK 2E-10             
1 41572U 98067JW  17345.12956487  .00030143  00000-0  15659-3 0  9991
2 41572  51.6328 188.0527 0003779 128.3397 231.7945 15.80707658 87414
FLOCK 2E-12             
1 41573U 98067JX  17344.84838938  .00038819  00000-0  17915-3 0  9995
2 41573  51.6300 186.8599 0004176 135.2880 224.8460 15.83128565 87407
FLOCK 2E-11             
1 41574U 98067JY  17344.78097603  .00031933  00000-0  15153-3 0  9997
2 41574  51.6241 186.3021 0005066 141.2070 218.9297 15.82630200 87409
FLOCK 2E'-9             
1 41575U 98067JZ  17344.94215179  .00051275  00000-0  19575-3 0  9999
2 41575  51.6270 182.0904 0005539 159.4164 200.7064 15.86953480 87464
FLOCK 2E'-10            
1 41576U 98067KA  17344.77065833  .00040663  00000-0  17230-3 0  9996
2 41576  51.6297 186.3654 0005620 152.6195 207.5106 15.84900112 87298
FLOCK 2E'-11            
1 41577U 98067KB  17344.78191156  .00028998  00000-0  14619-3 0  9991
2 41577  51.6324 188.7482 0004446 126.6502 233.4909 15.81381913 87088
FLOCK 2E'-12            
1 41578U 98067KC  17344.97686299  .00057099  00000-0  20829-3 0  9994
2 41578  51.6238 183.0820 0005328 155.2683 204.8578 15.87835706 87179
FLOCK 2P-6              
1 41606U 16040H   17345.12759138  .00002377  00000-0  10217-3 0  9997
2 41606  97.4392  46.3743 0011019 166.4490 193.7045 15.23600769 81638
FLOCK 2P-11             
1 41608U 16040K   17344.87032236  .00001685  00000-0  73491-4 0  9998
2 41608  97.4389  46.0795 0011027 167.3813 192.7702 15.23505971 81535
FLOCK 2P-2              
1 41609U 16040L   17345.14849726  .00003017  00000-0  12864-3 0  9997
2 41609  97.4391  46.3535 0010914 165.9340 194.2203 15.23658936 81552
FLOCK 2P-9              
1 41610U 16040M   17345.16037817  .00002970  00000-0  12678-3 0  9991
2 41610  97.4388  46.3182 0011193 166.3227 193.8315 15.23632179 81434
FLOCK 2P-4              
1 41611U 16040N   17344.86043576  .00003349  00000-0  14292-3 0  9992
2 41611  97.4416  46.2820 0011003 176.1494 183.9830 15.23548462 81556
FLOCK 2P-10             
1 41612U 16040P   17344.90315433  .00001031  00000-0  46014-4 0  9996
2 41612  97.4421  46.4111 0010848 175.9312 184.2015 15.23612256 81563
FLOCK 2P-8              
1 41613U 16040Q   17344.92039157  .00003112  00000-0  13300-3 0  9998
2 41613  97.4417  46.3605 0010999 175.0985 185.0362 15.23557245 81560
FLOCK 2P-12             
1 41614U 16040R   17345.14389099  .00002165  00000-0  93281-4 0  9991
2 41614  97.4427  46.7424 0010722 174.4025 185.7333 15.23617332 81601
FLOCK 2P-7              
1 41615U 16040S   17345.17618046  .00000907  00000-0  40874-4 0  9994
2 41615  97.4414  46.6114 0011053 175.2235 184.9109 15.23550501 81609
